{
  "links" : {
    "next" : "https://api.nasa.gov/neo/rest/v1/feed?start_date=2011-07-09&end_date=2011-07-09&detailed=true&api_key=t0TVs3DtDT2H8Oy2Zy8m2eVrNsAVKAexjcZXUckd",
    "prev" : "https://api.nasa.gov/neo/rest/v1/feed?start_date=2011-07-07&end_date=2011-07-07&detailed=true&api_key=t0TVs3DtDT2H8Oy2Zy8m2eVrNsAVKAexjcZXUckd",
    "self" : "https://api.nasa.gov/neo/rest/v1/feed?start_date=2011-07-08&end_date=2011-07-08&detailed=true&api_key=t0TVs3DtDT2H8Oy2Zy8m2eVrNsAVKAexjcZXUckd"
  },
  "element_count" : 6,
  "near_earth_objects" : {
    "2011-07-08" : [ {
      "links" : {
        "self" : "https://api.nasa.gov/neo/rest/v1/neo/3602572?api_key=t0TVs3DtDT2H8Oy2Zy8m2eVrNsAVKAexjcZXUckd"
      },
      "neo_reference_id" : "3602572",
      "name" : "(2012 GV11)",
      "nasa_jpl_url" : "http://ssd.jpl.nasa.gov/sbdb.cgi?sstr=3602572",
      "absolute_magnitude_h" : 22.3,
      "estimated_diameter" : {
        "kilometers" : {
          "estimated_diameter_min" : 0.0921626549,
          "estimated_diameter_max" : 0.2060819612
        },
        "meters" : {
          "estimated_diameter_min" : 92.1626548503,
          "estimated_diameter_max" : 206.0819612321
        },
        "miles" : {
          "estimated_diameter_min" : 0.057267201,
          "estimated_diameter_max" : 0.1280533543
        },
        "feet" : {
          "estimated_diameter_min" : 302.370924539,
          "estimated_diameter_max" : 676.1219416887
        }
      },
      "is_potentially_hazardous_asteroid" : false,
      "close_approach_data" : [ {
        "close_approach_date" : "2011-07-08",
        "epoch_date_close_approach" : 1310108400000,
        "relative_velocity" : {
          "kilometers_per_second" : "9.0831762887",
          "kilometers_per_hour" : "32699.4346391409",
          "miles_per_hour" : "20318.1570400817"
        },
        "miss_distance" : {
          "astronomical" : "0.1179054454",
          "lunar" : "45.8652191162",
          "kilometers" : "17638404",
          "miles" : "10959996"
        },
        "orbiting_body" : "Earth"
      } ],
      "orbital_data" : {
        "orbit_id" : "26",
        "orbit_determination_date" : "2017-04-06 08:50:08",
        "orbit_uncertainty" : "3",
        "minimum_orbit_intersection" : ".0752498",
        "jupiter_tisserand_invariant" : "5.850",
        "epoch_osculation" : "2458000.5",
        "eccentricity" : ".2157184322093987",
        "semi_major_axis" : "1.045043524692945",
        "inclination" : "5.403695674733137",
        "ascending_node_longitude" : "164.6694220022337",
        "orbital_period" : "390.2114374413899",
        "perihelion_distance" : ".8196083739555992",
        "perihelion_argument" : "217.5177071850167",
        "aphelion_distance" : "1.270478675430291",
        "perihelion_time" : "2458164.262098979104",
        "mean_anomaly" : "208.9168948531081",
        "mean_motion" : ".9225767505958159",
        "equinox" : "J2000"
      }
    }, {
      "links" : {
        "self" : "https://api.nasa.gov/neo/rest/v1/neo/3643993?api_key=t0TVs3DtDT2H8Oy2Zy8m2eVrNsAVKAexjcZXUckd"
      },
      "neo_reference_id" : "3643993",
      "name" : "(2013 LW28)",
      "nasa_jpl_url" : "http://ssd.jpl.nasa.gov/sbdb.cgi?sstr=3643993",
      "absolute_magnitude_h" : 18.8,
      "estimated_diameter" : {
        "kilometers" : {
          "estimated_diameter_min" : 0.4619074603,
          "estimated_diameter_max" : 1.0328564805
        },
        "meters" : {
          "estimated_diameter_min" : 461.9074602816,
          "estimated_diameter_max" : 1032.8564805039
        },
        "miles" : {
          "estimated_diameter_min" : 0.2870159005,
          "estimated_diameter_max" : 0.6417870641
        },
        "feet" : {
          "estimated_diameter_min" : 1515.4444719902,
          "estimated_diameter_max" : 3388.6368554964
        }
      },
      "is_potentially_hazardous_asteroid" : false,
      "close_approach_data" : [ {
        "close_approach_date" : "2011-07-08",
        "epoch_date_close_approach" : 1310108400000,
        "relative_velocity" : {
          "kilometers_per_second" : "30.2738127678",
          "kilometers_per_hour" : "108985.7259641826",
          "miles_per_hour" : "67719.4917803556"
        },
        "miss_distance" : {
          "astronomical" : "0.3655443912",
          "lunar" : "142.196762085",
          "kilometers" : "54684660",
          "miles" : "33979472"
        },
        "orbiting_body" : "Earth"
      } ],
      "orbital_data" : {
        "orbit_id" : "37",
        "orbit_determination_date" : "2017-04-06 08:45:36",
        "orbit_uncertainty" : "1",
        "minimum_orbit_intersection" : ".144631",
        "jupiter_tisserand_invariant" : "3.892",
        "epoch_osculation" : "2458000.5",
        "eccentricity" : ".5868134952345189",
        "semi_major_axis" : "1.678061575295869",
        "inclination" : "30.6551738838967",
        "ascending_node_longitude" : "136.3238846390947",
        "orbital_period" : "793.9812858960455",
        "perihelion_distance" : ".6933523970777573",
        "perihelion_argument" : "237.3702502815885",
        "aphelion_distance" : "2.662770753513981",
        "perihelion_time" : "2458172.409921757396",
        "mean_anomaly" : "282.05411773299",
        "mean_motion" : ".4534111904082511",
        "equinox" : "J2000"
      }
    }, {
      "links" : {
        "self" : "https://api.nasa.gov/neo/rest/v1/neo/3771564?api_key=t0TVs3DtDT2H8Oy2Zy8m2eVrNsAVKAexjcZXUckd"
      },
      "neo_reference_id" : "3771564",
      "name" : "(2017 FJ)",
      "nasa_jpl_url" : "http://ssd.jpl.nasa.gov/sbdb.cgi?sstr=3771564",
      "absolute_magnitude_h" : 28.1,
      "estimated_diameter" : {
        "kilometers" : {
          "estimated_diameter_min" : 0.0063760979,
          "estimated_diameter_max" : 0.0142573883
        },
        "meters" : {
          "estimated_diameter_min" : 6.3760978988,
          "estimated_diameter_max" : 14.2573883328
        },
        "miles" : {
          "estimated_diameter_min" : 0.0039619223,
          "estimated_diameter_max" : 0.0088591276
        },
        "feet" : {
          "estimated_diameter_min" : 20.9189570301,
          "estimated_diameter_max" : 46.7762099378
        }
      },
      "is_potentially_hazardous_asteroid" : false,
      "close_approach_data" : [ {
        "close_approach_date" : "2011-07-08",
        "epoch_date_close_approach" : 1310108400000,
        "relative_velocity" : {
          "kilometers_per_second" : "13.0725332391",
          "kilometers_per_hour" : "47061.1196609152",
          "miles_per_hour" : "29241.9496026392"
        },
        "miss_distance" : {
          "astronomical" : "0.1495595857",
          "lunar" : "58.1786804199",
          "kilometers" : "22373796",
          "miles" : "13902432"
        },
        "orbiting_body" : "Earth"
      } ],
      "orbital_data" : {
        "orbit_id" : "5",
        "orbit_determination_date" : "2017-04-06 08:19:30",
        "orbit_uncertainty" : "7",
        "minimum_orbit_intersection" : ".00416287",
        "jupiter_tisserand_invariant" : "4.330",
        "epoch_osculation" : "2458000.5",
        "eccentricity" : ".4121708077983566",
        "semi_major_axis" : "1.56063094338179",
        "inclination" : "3.308333482330645",
        "ascending_node_longitude" : "177.7632538140335",
        "orbital_period" : "712.1127264950645",
        "perihelion_distance" : ".917384426773006",
        "perihelion_argument" : "47.19189866352994",
        "aphelion_distance" : "2.203877459990573",
        "perihelion_time" : "2457868.959232363984",
        "mean_anomaly" : "66.49884854893669",
        "mean_motion" : ".5055379388764443",
        "equinox" : "J2000"
      }
    } ]
  }
}